{
    "links": {
        "self": "http://www.neowsapp.com/rest/v1/neo/3648678?api_key=iIulBulltgU6a56xZRHN4H3l9WmuAYTsLGpBGhQ2"
    },
    "id": "3648678",
    "neo_reference_id": "3648678",
    "name": "(2013 SE21)",
    "designation": "2013 SE21",
    "nasa_jpl_url": "http://ssd.jpl.nasa.gov/sbdb.cgi?sstr=3648678",
    "absolute_magnitude_h": 23.9,
    "estimated_diameter": {
        "kilometers": {
            "estimated_diameter_min": 0.04411182,
            "estimated_diameter_max": 0.0986370281
        },
        "meters": {
            "estimated_diameter_min": 44.1118199997,
            "estimated_diameter_max": 98.6370281305
        },
        "miles": {
            "estimated_diameter_min": 0.0274098057,
            "estimated_diameter_max": 0.0612901888
        },
        "feet": {
            "estimated_diameter_min": 144.7238235278,
            "estimated_diameter_max": 323.6123073718
        }
    },
    "is_potentially_hazardous_asteroid": false,
    "close_approach_data": [
        {
            "close_approach_date": "2009-12-04",
            "close_approach_date_full": "2009-Dec-04 23:55",
            "epoch_date_close_approach": 1259970900000,
            "relative_velocity": {
                "kilometers_per_second": "19.2601094561",
                "kilometers_per_hour": "69336.394041938",
                "miles_per_hour": "43082.9388423364"
            },
            "miss_distance": {
                "astronomical": "0.4639224061",
                "lunar": "180.4658159729",
                "kilometers": "69401803.797835007",
                "miles": "43124281.1804848166"
            },
            "orbiting_body": "Earth"
        },
        {
            "close_approach_date": "2013-10-12",
            "close_approach_date_full": "2013-Oct-12 13:02",
            "epoch_date_close_approach": 1381582920000,
            "relative_velocity": {
                "kilometers_per_second": "6.8086607519",
                "kilometers_per_hour": "24511.1787068177",
                "miles_per_hour": "15230.2932359113"
            },
            "miss_distance": {
                "astronomical": "0.0759420644",
                "lunar": "29.5414630516",
                "kilometers": "11360771.077642828",
                "miles": "7059255.8056059064"
            },
            "orbiting_body": "Earth"
        },
        {
            "close_approach_date": "2111-11-25",
            "close_approach_date_full": "2111-Nov-25 07:48",
            "epoch_date_close_approach": 4477880880000,
            "relative_velocity": {
                "kilometers_per_second": "15.4004010401",
                "kilometers_per_hour": "55441.4437445252",
                "miles_per_hour": "34449.1570867024"
            },
            "miss_distance": {
                "astronomical": "0.3854286004",
                "lunar": "149.9317255556",
                "kilometers": "57659297.656921148",
                "miles": "35827826.2056339224"
            },
            "orbiting_body": "Earth"
        }
    ],
    "orbital_data": {
        "orbit_id": "19",
        "orbit_determination_date": "2017-04-06 08:44:31",
        "first_observation_date": "2013-09-27",
        "last_observation_date": "2013-11-10",
        "data_arc_in_days": 44,
        "observations_used": 93,
        "orbit_uncertainty": "6",
        "minimum_orbit_intersection": ".0693496",
        "jupiter_tisserand_invariant": "3.228",
        "epoch_osculation": "2459000.5",
        "eccentricity": ".5713079790173137",
        "semi_major_axis": "2.482012518325546",
        "inclination": "3.354942625752012",
        "ascending_node_longitude": "19.94249168604845",
        "orbital_period": "1428.25047854565",
        "perihelion_distance": "1.064018962585305",
        "perihelion_argument": "8.679189482965127",
        "aphelion_distance": "3.900006074065786",
        "perihelion_time": "2459440.647937256168",
        "mean_anomaly": "249.0577949789528",
        "mean_motion": ".2520566283069469",
        "equinox": "J2000",
        "orbit_class": {
            "orbit_class_type": "AMO",
            "orbit_class_description": "Near-Earth asteroid orbits similar to that of 1221 Amor",
            "orbit_class_range": "1.017 AU < q (perihelion) < 1.3 AU"
        }
    },
    "is_sentry_object": false
}